GPS BIIF-8  (PRN 03)    
1 40294U 14068A   25060.27019136 -.00000024  00000+0  00000+0 0  9995
2 40294  56.6387  49.2334 0055935  63.6074 296.9748  2.00576136 75720
GPS BIIF-9  (PRN 26)    
1 40534U 15013A   25060.90913426  .00000045  00000+0  00000+0 0  9990
2 40534  53.2664 223.7185 0097600  34.4722 326.1154  2.00549691 72351
GPS BIIF-10 (PRN 08)    
1 40730U 15033A   25060.07244055  .00000007  00000+0  00000+0 0  9991
2 40730  54.3703 286.5474 0104213  23.5183 337.0147  2.00553637 70505
GPS BIIF-11 (PRN 10)    
1 41019U 15062A   25061.12632320 -.00000029  00000+0  00000+0 0  9992
2 41019  56.6171  49.0560 0103028 228.4522 130.6665  2.00566557 68362
GPS BIIF-12 (PRN 32)    
1 41328U 16007A   25060.21580047  .00000036  00000+0  00000+0 0  9999
2 41328  55.2428 108.2351 0086638 241.1499 118.0621  2.00574743 66392
GPS BIII-1  (PRN 04)    
1 43873U 18109A   25061.34630442  .00000027  00000+0  00000+0 0  9991
2 43873  55.4092 110.8216 0033156 196.8547 154.2214  2.00565407 45602
GPS BIII-2  (PRN 18)    
1 44506U 19056A   25059.23852819 -.00000077  00000+0  00000+0 0  9992
2 44506  55.8092 349.9509 0048912 194.2354 337.4464  2.00560179 40567
GPS BIII-3  (PRN 23)    
1 45854U 20041A   25060.07405888 -.00000027  00000+0  00000+0 0  9994
2 45854  56.3356  47.3593 0051097 199.6348 157.1427  2.00568104 34548
GPS BIII-4  (PRN 14)    
1 46826U 20078A   25060.67546439  .00000046  00000+0  00000+0 0  9998
2 46826  54.0936 229.9473 0054667 198.6810 203.5992  2.00558669 32031
GPS BIII-5  (PRN 11)    
1 48859U 21054A   25061.55371381 -.00000084  00000+0  00000+0 0  9994
2 48859  55.3392 351.3904 0018839 230.9969 273.7619  2.00569882 27290
GPS BIII-6  (PRN 28)    
1 55268U 23009A   25055.80589204  .00000001  00000+0  00000+0 0  9992
2 55268  55.0899 167.2640 0000971  39.5557 308.9006  2.00545614 15662
GPS BIII-7  (PRN 01)    
1 62339U 24242A   25059.35778491 -.00000079  00000+0  00000+0 0  9997
2 62339  54.9923 353.3668 0004649 316.4793 162.7363  2.00556138  1758
