[
    {
        "OBJECT_NAME": "NAVSTAR 72 (USA 258)",
        "OBJECT_ID": "2014-068A",
        "EPOCH": "2025-03-01T06:29:04.533504",
        "MEAN_MOTION": 2.00576136,
        "ECCENTRICITY": 0.0055935,
        "INCLINATION": 56.6387,
        "RA_OF_ASC_NODE": 49.2334,
        "ARG_OF_PERICENTER": 63.6074,
        "MEAN_ANOMALY": 296.9748,
        "EPHEMERIS_TYPE": 0,
        "CLASSIFICATION_TYPE": "U",
        "NORAD_CAT_ID": 40294,
        "ELEMENT_SET_NO": 999,
        "REV_AT_EPOCH": 7572,
        "BSTAR": 0,
        "MEAN_MOTION_DOT": -2.4e-07,
        "MEAN_MOTION_DDOT": 0
    },
    {
        "OBJECT_NAME": "NAVSTAR 73 (USA 260)",
        "OBJECT_ID": "2015-013A",
        "EPOCH": "2025-03-01T21:49:09.200064",
        "MEAN_MOTION": 2.00549691,
        "ECCENTRICITY": 0.00976,
        "INCLINATION": 53.2664,
        "RA_OF_ASC_NODE": 223.7185,
        "ARG_OF_PERICENTER": 34.4722,
        "MEAN_ANOMALY": 326.1154,
        "EPHEMERIS_TYPE": 0,
        "CLASSIFICATION_TYPE": "U",
        "NORAD_CAT_ID": 40534,
        "ELEMENT_SET_NO": 999,
        "REV_AT_EPOCH": 7235,
        "BSTAR": 0,
        "MEAN_MOTION_DOT": 4.5e-07,
        "MEAN_MOTION_DDOT": 0
    },
    {
        "OBJECT_NAME": "NAVSTAR 74 (USA 262)",
        "OBJECT_ID": "2015-033A",
        "EPOCH": "2025-03-01T01:44:18.863520",
        "MEAN_MOTION": 2.00553637,
        "ECCENTRICITY": 0.0104213,
        "INCLINATION": 54.3703,
        "RA_OF_ASC_NODE": 286.5474,
        "ARG_OF_PERICENTER": 23.5183,
        "MEAN_ANOMALY": 337.0147,
        "EPHEMERIS_TYPE": 0,
        "CLASSIFICATION_TYPE": "U",
        "NORAD_CAT_ID": 40730,
        "ELEMENT_SET_NO": 999,
        "REV_AT_EPOCH": 7050,
        "BSTAR": 0,
        "MEAN_MOTION_DOT": 7e-08,
        "MEAN_MOTION_DDOT": 0
    },
    {
        "OBJECT_NAME": "NAVSTAR 75 (USA 265)",
        "OBJECT_ID": "2015-062A",
        "EPOCH": "2025-03-02T03:01:54.324480",
        "MEAN_MOTION": 2.00566557,
        "ECCENTRICITY": 0.0103028,
        "INCLINATION": 56.6171,
        "RA_OF_ASC_NODE": 49.056,
        "ARG_OF_PERICENTER": 228.4522,
        "MEAN_ANOMALY": 130.6665,
        "EPHEMERIS_TYPE": 0,
        "CLASSIFICATION_TYPE": "U",
        "NORAD_CAT_ID": 41019,
        "ELEMENT_SET_NO": 999,
        "REV_AT_EPOCH": 6836,
        "BSTAR": 0,
        "MEAN_MOTION_DOT": -2.9e-07,
        "MEAN_MOTION_DDOT": 0
    },
    {
        "OBJECT_NAME": "NAVSTAR 76 (USA 266)",
        "OBJECT_ID": "2016-007A",
        "EPOCH": "2025-03-01T05:10:45.160608",
        "MEAN_MOTION": 2.00574743,
        "ECCENTRICITY": 0.0086638,
        "INCLINATION": 55.2428,
        "RA_OF_ASC_NODE": 108.2351,
        "ARG_OF_PERICENTER": 241.1499,
        "MEAN_ANOMALY": 118.0621,
        "EPHEMERIS_TYPE": 0,
        "CLASSIFICATION_TYPE": "U",
        "NORAD_CAT_ID": 41328,
        "ELEMENT_SET_NO": 999,
        "REV_AT_EPOCH": 6639,
        "BSTAR": 0,
        "MEAN_MOTION_DOT": 3.6e-07,
        "MEAN_MOTION_DDOT": 0
    },
    {
        "OBJECT_NAME": "NAVSTAR 77 (USA 289)",
        "OBJECT_ID": "2018-109A",
        "EPOCH": "2025-03-02T08:18:40.701888",
        "MEAN_MOTION": 2.00565407,
        "ECCENTRICITY": 0.0033156,
        "INCLINATION": 55.4092,
        "RA_OF_ASC_NODE": 110.8216,
        "ARG_OF_PERICENTER": 196.8547,
        "MEAN_ANOMALY": 154.2214,
        "EPHEMERIS_TYPE": 0,
        "CLASSIFICATION_TYPE": "U",
        "NORAD_CAT_ID": 43873,
        "ELEMENT_SET_NO": 999,
        "REV_AT_EPOCH": 4560,
        "BSTAR": 0,
        "MEAN_MOTION_DOT": 2.7e-07,
        "MEAN_MOTION_DDOT": 0
    },
    {
        "OBJECT_NAME": "NAVSTAR 78 (USA 293)",
        "OBJECT_ID": "2019-056A",
        "EPOCH": "2025-02-28T05:43:28.835616",
        "MEAN_MOTION": 2.00560179,
        "ECCENTRICITY": 0.0048912,
        "INCLINATION": 55.8092,
        "RA_OF_ASC_NODE": 349.9509,
        "ARG_OF_PERICENTER": 194.2354,
        "MEAN_ANOMALY": 337.4464,
        "EPHEMERIS_TYPE": 0,
        "CLASSIFICATION_TYPE": "U",
        "NORAD_CAT_ID": 44506,
        "ELEMENT_SET_NO": 999,
        "REV_AT_EPOCH": 4056,
        "BSTAR": 0,
        "MEAN_MOTION_DOT": -7.7e-07,
        "MEAN_MOTION_DDOT": 0
    },
    {
        "OBJECT_NAME": "NAVSTAR 79 (USA 304)",
        "OBJECT_ID": "2020-041A",
        "EPOCH": "2025-03-01T01:46:38.687232",
        "MEAN_MOTION": 2.00568104,
        "ECCENTRICITY": 0.0051097,
        "INCLINATION": 56.3356,
        "RA_OF_ASC_NODE": 47.3593,
        "ARG_OF_PERICENTER": 199.6348,
        "MEAN_ANOMALY": 157.1427,
        "EPHEMERIS_TYPE": 0,
        "CLASSIFICATION_TYPE": "U",
        "NORAD_CAT_ID": 45854,
        "ELEMENT_SET_NO": 999,
        "REV_AT_EPOCH": 3454,
        "BSTAR": 0,
        "MEAN_MOTION_DOT": -2.7e-07,
        "MEAN_MOTION_DDOT": 0
    },
    {
        "OBJECT_NAME": "NAVSTAR 80 (USA 309)",
        "OBJECT_ID": "2020-078A",
        "EPOCH": "2025-03-01T16:12:40.123296",
        "MEAN_MOTION": 2.00558669,
        "ECCENTRICITY": 0.0054667,
        "INCLINATION": 54.0936,
        "RA_OF_ASC_NODE": 229.9473,
        "ARG_OF_PERICENTER": 198.681,
        "MEAN_ANOMALY": 203.5992,
        "EPHEMERIS_TYPE": 0,
        "CLASSIFICATION_TYPE": "U",
        "NORAD_CAT_ID": 46826,
        "ELEMENT_SET_NO": 999,
        "REV_AT_EPOCH": 3203,
        "BSTAR": 0,
        "MEAN_MOTION_DOT": 4.6e-07,
        "MEAN_MOTION_DDOT": 0
    },
    {
        "OBJECT_NAME": "NAVSTAR 81 (USA 319)",
        "OBJECT_ID": "2021-054A",
        "EPOCH": "2025-03-02T13:17:20.873184",
        "MEAN_MOTION": 2.00569882,
        "ECCENTRICITY": 0.0018839,
        "INCLINATION": 55.3392,
        "RA_OF_ASC_NODE": 351.3904,
        "ARG_OF_PERICENTER": 230.9969,
        "MEAN_ANOMALY": 273.7619,
        "EPHEMERIS_TYPE": 0,
        "CLASSIFICATION_TYPE": "U",
        "NORAD_CAT_ID": 48859,
        "ELEMENT_SET_NO": 999,
        "REV_AT_EPOCH": 2729,
        "BSTAR": 0,
        "MEAN_MOTION_DOT": -8.4e-07,
        "MEAN_MOTION_DDOT": 0
    },
    {
        "OBJECT_NAME": "NAVSTAR 82 (USA 343)",
        "OBJECT_ID": "2023-009A",
        "EPOCH": "2025-02-24T19:20:29.072256",
        "MEAN_MOTION": 2.00545614,
        "ECCENTRICITY": 9.71e-05,
        "INCLINATION": 55.0899,
        "RA_OF_ASC_NODE": 167.264,
        "ARG_OF_PERICENTER": 39.5557,
        "MEAN_ANOMALY": 308.9006,
        "EPHEMERIS_TYPE": 0,
        "CLASSIFICATION_TYPE": "U",
        "NORAD_CAT_ID": 55268,
        "ELEMENT_SET_NO": 999,
        "REV_AT_EPOCH": 1566,
        "BSTAR": 0,
        "MEAN_MOTION_DOT": 1e-08,
        "MEAN_MOTION_DDOT": 0
    },
    {
        "OBJECT_NAME": "NAVSTAR 83 (USA 440)",
        "OBJECT_ID": "2024-242A",
        "EPOCH": "2025-02-28T08:35:12.616224",
        "MEAN_MOTION": 2.00556138,
        "ECCENTRICITY": 0.0004649,
        "INCLINATION": 54.9923,
        "RA_OF_ASC_NODE": 353.3668,
        "ARG_OF_PERICENTER": 316.4793,
        "MEAN_ANOMALY": 162.7363,
        "EPHEMERIS_TYPE": 0,
        "CLASSIFICATION_TYPE": "U",
        "NORAD_CAT_ID": 62339,
        "ELEMENT_SET_NO": 999,
        "REV_AT_EPOCH": 175,
        "BSTAR": 0,
        "MEAN_MOTION_DOT": -7.9e-07,
        "MEAN_MOTION_DDOT": 0
    }
]